STARLINK-2673
1 18649C 21044M   21326.17845414  .00001255  00000-0  84120-4 0  3266
2 18649  53.0518 322.9372 0001900  58.7719 254.2769 15.06393549    11
